{"type": "FeatureCollection", "features": [{"type": "Feature", "properties": {"name": "성수1가1동", "sgg": "성동구"}, "geometry": {"type": "MultiPolygon", "coordinates": [[[[127.04958, 37.54417], [127.05188, 37.54347], [127.05116, 37.54222], [127.05112, 37.54215], [127.05107, 37.54205], [127.05105, 37.54201], [127.05101, 37.54191], [127.05065, 37.54079], [127.05063, 37.54072], [127.05057, 37.54055], [127.05055, 37.54047], [127.05046, 37.54011], [127.05045, 37.54006], [127.05044, 37.54002], [127.05084, 37.5373], [127.05045, 37.53671], [127.04976, 37.53466], [127.04906, 37.53255], [127.04596, 37.5325], [127.03919, 37.53523], [127.03801, 37.5357], [127.03782, 37.53578], [127.03486, 37.53692], [127.02986, 37.53886], [127.02833, 37.53854], [127.02828, 37.53853], [127.03089, 37.54526], [127.031, 37.54563], [127.03109, 37.54596], [127.03091, 37.54606], [127.03075, 37.54615], [127.0304, 37.54627], [127.03122, 37.54657], [127.03116, 37.54628], [127.03112, 37.54607], [127.03436, 37.54543], [127.03559, 37.54631], [127.03641, 37.54717], [127.0365, 37.54728], [127.03672, 37.54756], [127.03918, 37.5469], [127.04359, 37.54596], [127.0438, 37.54599], [127.04397, 37.54623], [127.04476, 37.54621], [127.04539, 37.54614], [127.04678, 37.5457], [127.04736, 37.54549], [127.04912, 37.54481], [127.04958, 37.54417]]]]}}, {"type": "Feature", "properties": {"name": "성수1가2동", "sgg": "성동구"}, "geometry": {"type": "MultiPolygon", "coordinates": [[[[127.04934, 37.55264], [127.05252, 37.55169], [127.05218, 37.55084], [127.04958, 37.54417], [127.04912, 37.54481], [127.04736, 37.54549], [127.04678, 37.5457], [127.04539, 37.54614], [127.04476, 37.54621], [127.04397, 37.54623], [127.0438, 37.54599], [127.04359, 37.54596], [127.03918, 37.5469], [127.03672, 37.54756], [127.0365, 37.54728], [127.03641, 37.54717], [127.03559, 37.54631], [127.03436, 37.54543], [127.03112, 37.54607], [127.03116, 37.54628], [127.03122, 37.54657], [127.03236, 37.54672], [127.0325, 37.54675], [127.03438, 37.54816], [127.04006, 37.55133], [127.04046, 37.5525], [127.04005, 37.55277], [127.03983, 37.55292], [127.04176, 37.5527], [127.0445, 37.55301], [127.04664, 37.55302], [127.04669, 37.55301], [127.04691, 37.55299], [127.04701, 37.55298], [127.04793, 37.55288], [127.048, 37.55288], [127.04934, 37.55264]]]]}}, {"type": "Feature", "properties": {"name": "성수2가1동", "sgg": "성동구"}, "geometry": {"type": "MultiPolygon", "coordinates": [[[[127.06283, 37.54019], [127.05657, 37.5291], [127.04906, 37.53255], [127.04976, 37.53466], [127.05045, 37.53671], [127.05084, 37.5373], [127.05044, 37.54002], [127.05045, 37.54006], [127.05046, 37.54011], [127.05055, 37.54047], [127.05057, 37.54055], [127.05063, 37.54072], [127.05065, 37.54079], [127.05101, 37.54191], [127.05105, 37.54201], [127.05107, 37.54205], [127.05112, 37.54215], [127.05116, 37.54222], [127.05188, 37.54347], [127.06283, 37.54019]]]]}}, {"type": "Feature", "properties": {"name": "성수2가3동", "sgg": "성동구"}, "geometry": {"type": "MultiPolygon", "coordinates": [[[[127.0675, 37.54831], [127.06394, 37.54215], [127.06283, 37.54019], [127.05188, 37.54347], [127.04958, 37.54417], [127.05218, 37.55084], [127.05458, 37.55009], [127.05609, 37.54949], [127.05643, 37.54936], [127.05669, 37.54926], [127.05726, 37.54905], [127.05737, 37.54901], [127.05829, 37.54875], [127.05865, 37.54865], [127.05925, 37.54851], [127.06004, 37.54833], [127.06113, 37.54821], [127.06206, 37.54812], [127.06225, 37.5481], [127.06311, 37.54809], [127.06659, 37.54826], [127.0675, 37.54831]]]]}}, {"type": "Feature", "properties": {"name": "목1동", "sgg": "양천구"}, "geometry": {"type": "MultiPolygon", "coordinates": [[[[126.88848, 37.53072], [126.88761, 37.52948], [126.88705, 37.52878], [126.88696, 37.52866], [126.88659, 37.52831], [126.88631, 37.52806], [126.88603, 37.52793], [126.88535, 37.52761], [126.88476, 37.5274], [126.88173, 37.52632], [126.88137, 37.526], [126.88051, 37.52523], [126.88049, 37.52515], [126.88028, 37.52436], [126.87982, 37.5222], [126.87445, 37.52267], [126.87116, 37.52313], [126.86859, 37.52396], [126.8654, 37.52257], [126.86442, 37.52583], [126.86432, 37.52621], [126.86421, 37.52716], [126.86417, 37.52751], [126.86405, 37.52924], [126.86401, 37.5298], [126.86719, 37.53022], [126.87037, 37.53063], [126.87393, 37.53111], [126.87505, 37.53126], [126.87961, 37.53176], [126.8806, 37.53184], [126.88083, 37.53186], [126.88148, 37.53189], [126.88253, 37.53187], [126.88259, 37.53187], [126.88295, 37.53184], [126.88374, 37.53178], [126.88507, 37.53156], [126.88643, 37.53132], [126.88651, 37.53129], [126.88848, 37.53072]]]]}}, {"type": "Feature", "properties": {"name": "목2동", "sgg": "양천구"}, "geometry": {"type": "MultiPolygon", "coordinates": [[[[126.88516, 37.54359], [126.88349, 37.54401], [126.88189, 37.54358], [126.87749, 37.5415], [126.87437, 37.53914], [126.87267, 37.53757], [126.86945, 37.53933], [126.86847, 37.53979], [126.86793, 37.54025], [126.86616, 37.54411], [126.86627, 37.54449], [126.86633, 37.54469], [126.86686, 37.54557], [126.86853, 37.54722], [126.87005, 37.54699], [126.8707, 37.54765], [126.87116, 37.54749], [126.87177, 37.54729], [126.87206, 37.54721], [126.87242, 37.54711], [126.873, 37.54702], [126.87347, 37.54697], [126.87402, 37.54693], [126.87462, 37.54694], [126.87489, 37.54695], [126.87495, 37.54695], [126.87501, 37.54696], [126.87685, 37.54706], [126.87737, 37.54711], [126.87772, 37.54715], [126.87781, 37.54717], [126.87789, 37.54718], [126.87814, 37.54721], [126.87849, 37.54731], [126.8794, 37.54755], [126.87988, 37.54767], [126.88071, 37.54787], [126.88325, 37.54556], [126.88516, 37.54359]]]]}}, {"type": "Feature", "properties": {"name": "목3동", "sgg": "양천구"}, "geometry": {"type": "MultiPolygon", "coordinates": [[[[126.86498, 37.55093], [126.8707, 37.54765], [126.87005, 37.54699], [126.86853, 37.54722], [126.86686, 37.54557], [126.86633, 37.54469], [126.86627, 37.54449], [126.86616, 37.54411], [126.86793, 37.54025], [126.86847, 37.53979], [126.86367, 37.53928], [126.86294, 37.54247], [126.86234, 37.5436], [126.86233, 37.54364], [126.86229, 37.54374], [126.86216, 37.54414], [126.86217, 37.54448], [126.86219, 37.54456], [126.86243, 37.54543], [126.86254, 37.54585], [126.86293, 37.54702], [126.86428, 37.55139], [126.86498, 37.55093]]]]}}, {"type": "Feature", "properties": {"name": "목4동", "sgg": "양천구"}, "geometry": {"type": "MultiPolygon", "coordinates": [[[[126.87267, 37.53757], [126.87254, 37.53747], [126.87137, 37.5365], [126.87112, 37.53628], [126.87097, 37.53615], [126.8709, 37.53609], [126.87057, 37.5358], [126.87024, 37.53548], [126.87015, 37.53539], [126.87002, 37.53518], [126.86991, 37.535], [126.86987, 37.53494], [126.8679, 37.53162], [126.86719, 37.53022], [126.86401, 37.5298], [126.86349, 37.5356], [126.86367, 37.53928], [126.86847, 37.53979], [126.86945, 37.53933], [126.87267, 37.53757]]]]}}, {"type": "Feature", "properties": {"name": "목5동", "sgg": "양천구"}, "geometry": {"type": "MultiPolygon", "coordinates": [[[[126.88516, 37.54359], [126.88617, 37.5436], [126.88729, 37.5434], [126.88774, 37.54268], [126.88791, 37.5424], [126.88902, 37.54037], [126.8913, 37.53583], [126.89163, 37.53446], [126.89153, 37.53314], [126.89107, 37.53229], [126.89004, 37.53038], [126.88848, 37.53072], [126.88651, 37.53129], [126.88643, 37.53132], [126.88507, 37.53156], [126.88374, 37.53178], [126.88295, 37.53184], [126.88259, 37.53187], [126.88253, 37.53187], [126.88148, 37.53189], [126.88083, 37.53186], [126.8806, 37.53184], [126.87961, 37.53176], [126.87505, 37.53126], [126.87393, 37.53111], [126.87037, 37.53063], [126.86719, 37.53022], [126.8679, 37.53162], [126.86987, 37.53494], [126.86991, 37.535], [126.87002, 37.53518], [126.87015, 37.53539], [126.87024, 37.53548], [126.87057, 37.5358], [126.8709, 37.53609], [126.87097, 37.53615], [126.87112, 37.53628], [126.87137, 37.5365], [126.87254, 37.53747], [126.87267, 37.53757], [126.87437, 37.53914], [126.87749, 37.5415], [126.88189, 37.54358], [126.88349, 37.54401], [126.88516, 37.54359]]]]}}, {"type": "Feature", "properties": {"name": "여의동", "sgg": "영등포구"}, "geometry": {"type": "MultiPolygon", "coordinates": [[[[126.91451, 37.54016], [126.92547, 37.53782], [126.92565, 37.53778], [126.92792, 37.53726], [126.92863, 37.53709], [126.92889, 37.53703], [126.92923, 37.53695], [126.92967, 37.5369], [126.93123, 37.53669], [126.93401, 37.53634], [126.93709, 37.53431], [126.94357, 37.52942], [126.94634, 37.52733], [126.94671, 37.52705], [126.94742, 37.52586], [126.94772, 37.52536], [126.94794, 37.52358], [126.94962, 37.52116], [126.9504, 37.52003], [126.94563, 37.51866], [126.94296, 37.51776], [126.93963, 37.51701], [126.93848, 37.51679], [126.93304, 37.51576], [126.93215, 37.51565], [126.92601, 37.5161], [126.92525, 37.51624], [126.92511, 37.51629], [126.92019, 37.51809], [126.91985, 37.51822], [126.91974, 37.51826], [126.91915, 37.51853], [126.91831, 37.51891], [126.91818, 37.519], [126.91763, 37.51936], [126.91749, 37.51945], [126.9172, 37.51958], [126.91665, 37.51989], [126.91602, 37.52034], [126.91582, 37.52064], [126.91523, 37.52155], [126.91369, 37.52375], [126.91338, 37.52417], [126.9132, 37.52442], [126.91271, 37.52516], [126.91198, 37.52626], [126.91163, 37.52735], [126.9097, 37.53338], [126.90942, 37.53426], [126.90836, 37.53757], [126.908, 37.53916], [126.90782, 37.53995], [126.90776, 37.54095], [126.90771, 37.54167], [126.91451, 37.54016]]]]}}, {"type": "Feature", "properties": {"name": "신사동", "sgg": "강남구"}, "geometry": {"type": "MultiPolygon", "coordinates": [[[[127.02808, 37.51958], [127.02721, 37.51927], [127.02526, 37.51856], [127.02117, 37.51682], [127.01944, 37.51599], [127.01948, 37.51634], [127.01903, 37.51824], [127.01892, 37.51857], [127.01828, 37.52052], [127.01798, 37.5213], [127.01761, 37.52209], [127.0172, 37.5227], [127.01707, 37.52289], [127.01661, 37.52338], [127.0146, 37.52551], [127.01187, 37.52784], [127.01261, 37.52831], [127.01546, 37.5307], [127.01637, 37.53147], [127.01704, 37.53203], [127.01822, 37.53302], [127.01951, 37.53411], [127.02006, 37.53456], [127.02018, 37.53464], [127.02092, 37.53512], [127.02156, 37.53553], [127.02424, 37.53166], [127.02436, 37.5315], [127.02442, 37.5314], [127.02524, 37.53024], [127.0257, 37.52979], [127.02618, 37.52932], [127.02659, 37.52897], [127.02687, 37.52874], [127.02741, 37.5283], [127.028, 37.52777], [127.02831, 37.52729], [127.02834, 37.52721], [127.02856, 37.52731], [127.02862, 37.52661], [127.02859, 37.52594], [127.02856, 37.52555], [127.02837, 37.52458], [127.02825, 37.52257], [127.02817, 37.52134], [127.02816, 37.52113], [127.02808, 37.51958]]]]}}, {"type": "Feature", "properties": {"name": "논현1동", "sgg": "강남구"}, "geometry": {"type": "MultiPolygon", "coordinates": [[[[127.03389, 37.50739], [127.02447, 37.50457], [127.02137, 37.51103], [127.02035, 37.51081], [127.02131, 37.51117], [127.01986, 37.51504], [127.01944, 37.51599], [127.02117, 37.51682], [127.02526, 37.51856], [127.02721, 37.51927], [127.02808, 37.51958], [127.02827, 37.51946], [127.02969, 37.51642], [127.03023, 37.51526], [127.03055, 37.51457], [127.03069, 37.51428], [127.03077, 37.5141], [127.03046, 37.5139], [127.03085, 37.51392], [127.03096, 37.51369], [127.03112, 37.51333], [127.03168, 37.51213], [127.03389, 37.50739]]]]}}, {"type": "Feature", "properties": {"name": "논현2동", "sgg": "강남구"}, "geometry": {"type": "MultiPolygon", "coordinates": [[[[127.03918, 37.52291], [127.04124, 37.5173], [127.04027, 37.51693], [127.04131, 37.5171], [127.04305, 37.51237], [127.04377, 37.51026], [127.03389, 37.50739], [127.03168, 37.51213], [127.03112, 37.51333], [127.03096, 37.51369], [127.03085, 37.51392], [127.03046, 37.5139], [127.03077, 37.5141], [127.03069, 37.51428], [127.03055, 37.51457], [127.03023, 37.51526], [127.02969, 37.51642], [127.02827, 37.51946], [127.02808, 37.51958], [127.03052, 37.52036], [127.03279, 37.52108], [127.03387, 37.52142], [127.03741, 37.52254], [127.03826, 37.5228], [127.03884, 37.52298], [127.03906, 37.52293], [127.03918, 37.52291]]]]}}, {"type": "Feature", "properties": {"name": "삼성1동", "sgg": "강남구"}, "geometry": {"type": "MultiPolygon", "coordinates": [[[[127.06696, 37.52508], [127.0665, 37.52093], [127.06716, 37.51998], [127.06838, 37.51231], [127.06844, 37.51143], [127.06846, 37.51028], [127.06737, 37.51009], [127.06655, 37.50994], [127.0605, 37.50802], [127.05669, 37.50686], [127.05618, 37.50777], [127.0553, 37.50935], [127.05465, 37.51052], [127.05462, 37.51055], [127.05461, 37.51059], [127.05281, 37.51392], [127.05269, 37.51414], [127.05241, 37.51466], [127.0517, 37.51599], [127.05098, 37.51746], [127.05027, 37.51885], [127.05113, 37.519], [127.05622, 37.51989], [127.057, 37.52004], [127.05731, 37.52011], [127.05777, 37.52026], [127.05808, 37.52037], [127.05831, 37.52045], [127.0584, 37.52048], [127.05883, 37.52063], [127.06032, 37.52115], [127.06056, 37.52124], [127.06062, 37.52127], [127.06155, 37.52173], [127.06194, 37.52214], [127.06526, 37.5256], [127.06696, 37.52508]]]]}}, {"type": "Feature", "properties": {"name": "삼성2동", "sgg": "강남구"}, "geometry": {"type": "MultiPolygon", "coordinates": [[[[127.05669, 37.50686], [127.04904, 37.5044], [127.04718, 37.50397], [127.04893, 37.50463], [127.04868, 37.50514], [127.04826, 37.50598], [127.04814, 37.50621], [127.04777, 37.50659], [127.04728, 37.50691], [127.04699, 37.50709], [127.04687, 37.50716], [127.04641, 37.50745], [127.04573, 37.50787], [127.04566, 37.50792], [127.04487, 37.50848], [127.04418, 37.5092], [127.04377, 37.51026], [127.04305, 37.51237], [127.04131, 37.5171], [127.04027, 37.51693], [127.04124, 37.5173], [127.05027, 37.51885], [127.05098, 37.51746], [127.0517, 37.51599], [127.05241, 37.51466], [127.05269, 37.51414], [127.05281, 37.51392], [127.05461, 37.51059], [127.05462, 37.51055], [127.05465, 37.51052], [127.0553, 37.50935], [127.05618, 37.50777], [127.05669, 37.50686]]]]}}, {"type": "Feature", "properties": {"name": "대치1동", "sgg": "강남구"}, "geometry": {"type": "MultiPolygon", "coordinates": [[[[127.06553, 37.49007], [127.06202, 37.48942], [127.05999, 37.48904], [127.05939, 37.4889], [127.05927, 37.48887], [127.05921, 37.48885], [127.0588, 37.48875], [127.0579, 37.48838], [127.05656, 37.48768], [127.05573, 37.49012], [127.05548, 37.49082], [127.0554, 37.49104], [127.05382, 37.49438], [127.05374, 37.49456], [127.0534, 37.49526], [127.05303, 37.49567], [127.05273, 37.49627], [127.05251, 37.49705], [127.05567, 37.49722], [127.06086, 37.49887], [127.0622, 37.49646], [127.06553, 37.49007]]]]}}, {"type": "Feature", "properties": {"name": "대치4동", "sgg": "강남구"}, "geometry": {"type": "MultiPolygon", "coordinates": [[[[127.06086, 37.49887], [127.05567, 37.49722], [127.05251, 37.49705], [127.04929, 37.50386], [127.04904, 37.5044], [127.05669, 37.50686], [127.06086, 37.49887]]]]}}, {"type": "Feature", "properties": {"name": "역삼1동", "sgg": "강남구"}, "geometry": {"type": "MultiPolygon", "coordinates": [[[[127.04718, 37.50397], [127.04277, 37.50262], [127.0384, 37.50128], [127.03704, 37.50062], [127.03846, 37.49753], [127.04089, 37.49241], [127.03162, 37.48954], [127.02764, 37.49796], [127.02649, 37.50037], [127.0245, 37.50452], [127.02447, 37.50457], [127.03389, 37.50739], [127.04377, 37.51026], [127.04418, 37.5092], [127.04487, 37.50848], [127.04566, 37.50792], [127.04573, 37.50787], [127.04641, 37.50745], [127.04687, 37.50716], [127.04699, 37.50709], [127.04728, 37.50691], [127.04777, 37.50659], [127.04814, 37.50621], [127.04826, 37.50598], [127.04868, 37.50514], [127.04893, 37.50463], [127.04718, 37.50397]]]]}}, {"type": "Feature", "properties": {"name": "역삼2동", "sgg": "강남구"}, "geometry": {"type": "MultiPolygon", "coordinates": [[[[127.05251, 37.49705], [127.05273, 37.49627], [127.04669, 37.49431], [127.04089, 37.49241], [127.03846, 37.49753], [127.03704, 37.50062], [127.0384, 37.50128], [127.04277, 37.50262], [127.04718, 37.50397], [127.04904, 37.5044], [127.04929, 37.50386], [127.05251, 37.49705]]]]}}, {"type": "Feature", "properties": {"name": "도곡1동", "sgg": "강남구"}, "geometry": {"type": "MultiPolygon", "coordinates": [[[[127.04135, 37.48557], [127.03397, 37.4848], [127.03378, 37.4851], [127.03162, 37.48954], [127.04089, 37.49241], [127.04669, 37.49431], [127.04904, 37.48987], [127.04926, 37.48945], [127.0494, 37.48919], [127.04982, 37.48838], [127.04838, 37.48772], [127.04801, 37.48768], [127.04675, 37.48715], [127.04539, 37.48653], [127.04528, 37.48648], [127.04537, 37.48636], [127.04504, 37.48623], [127.04423, 37.48597], [127.04417, 37.48595], [127.04381, 37.4859], [127.04135, 37.48557]]]]}}, {"type": "Feature", "properties": {"name": "도곡2동", "sgg": "강남구"}, "geometry": {"type": "MultiPolygon", "coordinates": [[[[127.05656, 37.48768], [127.05652, 37.48766], [127.05173, 37.48485], [127.0511, 37.48446], [127.05087, 37.48432], [127.04991, 37.48373], [127.0481, 37.48262], [127.0479, 37.4825], [127.04617, 37.48149], [127.04513, 37.48089], [127.04485, 37.48072], [127.04436, 37.48019], [127.04431, 37.48013], [127.04394, 37.47971], [127.04154, 37.48509], [127.04135, 37.48557], [127.04381, 37.4859], [127.04417, 37.48595], [127.04423, 37.48597], [127.04504, 37.48623], [127.04537, 37.48636], [127.04528, 37.48648], [127.04539, 37.48653], [127.04675, 37.48715], [127.04801, 37.48768], [127.04838, 37.48772], [127.04982, 37.48838], [127.0494, 37.48919], [127.04926, 37.48945], [127.04904, 37.48987], [127.04669, 37.49431], [127.05273, 37.49627], [127.05303, 37.49567], [127.0534, 37.49526], [127.05374, 37.49456], [127.05382, 37.49438], [127.0554, 37.49104], [127.05548, 37.49082], [127.05573, 37.49012], [127.05656, 37.48768]]]]}}, {"type": "Feature", "properties": {"name": "개포1동", "sgg": "강남구"}, "geometry": {"type": "MultiPolygon", "coordinates": [[[[127.07641, 37.4837], [127.07589, 37.48245], [127.07482, 37.48062], [127.07457, 37.48036], [127.07411, 37.48007], [127.07353, 37.47954], [127.0732, 37.47913], [127.07286, 37.47873], [127.07301, 37.47844], [127.07335, 37.47785], [127.07438, 37.47627], [127.07716, 37.47501], [127.07615, 37.47399], [127.07594, 37.4738], [127.07391, 37.47286], [127.07265, 37.4748], [127.07081, 37.47483], [127.06976, 37.47478], [127.06924, 37.47389], [127.06253, 37.47284], [127.05874, 37.47599], [127.05819, 37.47655], [127.0552, 37.47959], [127.05478, 37.48002], [127.0538, 37.48106], [127.05377, 37.48109], [127.05357, 37.48146], [127.05173, 37.48485], [127.05652, 37.48766], [127.05682, 37.48655], [127.05687, 37.48649], [127.05745, 37.4856], [127.05765, 37.48531], [127.058, 37.48482], [127.06474, 37.47919], [127.06481, 37.47907], [127.06757, 37.48073], [127.0704, 37.48245], [127.07048, 37.48249], [127.07247, 37.48395], [127.0742, 37.48522], [127.07553, 37.4862], [127.07559, 37.48609], [127.07641, 37.4837]]]]}}, {"type": "Feature", "properties": {"name": "개포4동", "sgg": "강남구"}, "geometry": {"type": "MultiPolygon", "coordinates": [[[[127.06253, 37.47284], [127.06228, 37.47023], [127.06216, 37.46965], [127.06161, 37.46896], [127.05675, 37.46842], [127.05621, 37.46839], [127.05453, 37.46853], [127.05416, 37.46863], [127.05381, 37.46873], [127.05007, 37.4701], [127.04958, 37.47049], [127.05039, 37.47104], [127.05106, 37.47149], [127.05071, 37.47182], [127.04915, 37.47332], [127.04503, 37.47729], [127.04469, 37.47797], [127.04457, 37.47819], [127.04394, 37.47971], [127.04431, 37.48013], [127.04436, 37.48019], [127.04485, 37.48072], [127.04513, 37.48089], [127.04617, 37.48149], [127.0479, 37.4825], [127.0481, 37.48262], [127.04991, 37.48373], [127.05087, 37.48432], [127.0511, 37.48446], [127.05173, 37.48485], [127.05357, 37.48146], [127.05377, 37.48109], [127.0538, 37.48106], [127.05478, 37.48002], [127.0552, 37.47959], [127.05819, 37.47655], [127.05874, 37.47599], [127.06253, 37.47284]]]]}}, {"type": "Feature", "properties": {"name": "일원본동", "sgg": "강남구"}, "geometry": {"type": "MultiPolygon", "coordinates": [[[[127.09299, 37.47726], [127.09194, 37.47737], [127.08669, 37.47603], [127.08556, 37.47555], [127.08516, 37.47527], [127.08405, 37.47544], [127.08387, 37.47545], [127.083, 37.47539], [127.08219, 37.47533], [127.08163, 37.47526], [127.08102, 37.47517], [127.08035, 37.47489], [127.07925, 37.47483], [127.07904, 37.47483], [127.07834, 37.47486], [127.07716, 37.47501], [127.07438, 37.47627], [127.07335, 37.47785], [127.07301, 37.47844], [127.07286, 37.47873], [127.0732, 37.47913], [127.07353, 37.47954], [127.07411, 37.48007], [127.07457, 37.48036], [127.07482, 37.48062], [127.07589, 37.48245], [127.07641, 37.4837], [127.07745, 37.48712], [127.0818, 37.48867], [127.09075, 37.49134], [127.09131, 37.49027], [127.09409, 37.48735], [127.09417, 37.48721], [127.09501, 37.48283], [127.09492, 37.4824], [127.09481, 37.48226], [127.09462, 37.48204], [127.0943, 37.48165], [127.09419, 37.48152], [127.09378, 37.48085], [127.0931, 37.47953], [127.093, 37.47855], [127.09299, 37.47726]]]]}}, {"type": "Feature", "properties": {"name": "일원1동", "sgg": "강남구"}, "geometry": {"type": "MultiPolygon", "coordinates": [[[[127.09674, 37.49583], [127.10197, 37.49364], [127.10017, 37.49308], [127.09922, 37.49281], [127.09829, 37.49261], [127.09735, 37.49248], [127.09647, 37.49236], [127.09608, 37.4923], [127.0951, 37.49216], [127.09253, 37.4918], [127.09228, 37.49176], [127.09153, 37.49155], [127.09131, 37.4915], [127.09075, 37.49134], [127.0818, 37.48867], [127.07985, 37.49293], [127.07962, 37.49367], [127.08007, 37.49382], [127.08064, 37.49402], [127.08106, 37.49417], [127.08112, 37.49419], [127.0867, 37.49596], [127.08846, 37.4965], [127.09047, 37.49747], [127.09674, 37.49583]]]]}}, {"type": "Feature", "properties": {"name": "개포3동", "sgg": "강남구"}, "geometry": {"type": "MultiPolygon", "coordinates": [[[[127.08363, 37.49926], [127.09047, 37.49747], [127.08846, 37.4965], [127.0867, 37.49596], [127.08112, 37.49419], [127.08106, 37.49417], [127.08064, 37.49402], [127.08007, 37.49382], [127.07962, 37.49367], [127.07985, 37.49293], [127.0818, 37.48867], [127.07745, 37.48712], [127.07804, 37.48787], [127.07721, 37.49059], [127.0765, 37.492], [127.07621, 37.49259], [127.07544, 37.49234], [127.07494, 37.49217], [127.075, 37.49206], [127.07278, 37.49131], [127.0724, 37.49135], [127.07184, 37.49303], [127.07245, 37.49357], [127.07343, 37.49452], [127.07358, 37.49466], [127.07367, 37.49481], [127.07379, 37.495], [127.07382, 37.49505], [127.07385, 37.4951], [127.07412, 37.49618], [127.07424, 37.49667], [127.0743, 37.49747], [127.07428, 37.49775], [127.07427, 37.49782], [127.07418, 37.49848], [127.07418, 37.49853], [127.07407, 37.49886], [127.07465, 37.5003], [127.07549, 37.5012], [127.08363, 37.49926]]]]}}, {"type": "Feature", "properties": {"name": "수서동", "sgg": "강남구"}, "geometry": {"type": "MultiPolygon", "coordinates": [[[[127.10814, 37.48931], [127.11019, 37.48688], [127.11156, 37.48456], [127.11228, 37.48354], [127.11218, 37.48344], [127.11198, 37.48332], [127.11174, 37.48318], [127.11139, 37.48305], [127.1111, 37.48294], [127.11104, 37.48294], [127.11051, 37.48307], [127.11003, 37.48319], [127.10828, 37.48309], [127.10745, 37.48291], [127.10694, 37.48281], [127.10674, 37.4828], [127.10656, 37.48279], [127.1056, 37.48274], [127.10495, 37.48343], [127.10399, 37.48478], [127.10262, 37.48494], [127.10223, 37.48477], [127.09949, 37.48318], [127.09886, 37.4828], [127.09857, 37.48262], [127.09798, 37.4822], [127.09769, 37.48181], [127.09736, 37.48083], [127.09729, 37.48037], [127.09743, 37.47993], [127.09748, 37.47917], [127.09734, 37.47808], [127.09576, 37.4776], [127.09299, 37.47726], [127.093, 37.47855], [127.0931, 37.47953], [127.09378, 37.48085], [127.09419, 37.48152], [127.0943, 37.48165], [127.09462, 37.48204], [127.09481, 37.48226], [127.09492, 37.4824], [127.09501, 37.48283], [127.09417, 37.48721], [127.09409, 37.48735], [127.09131, 37.49027], [127.09075, 37.49134], [127.09131, 37.4915], [127.09153, 37.49155], [127.09228, 37.49176], [127.09253, 37.4918], [127.0951, 37.49216], [127.09608, 37.4923], [127.09647, 37.49236], [127.09735, 37.49248], [127.09829, 37.49261], [127.09922, 37.49281], [127.10017, 37.49308], [127.10197, 37.49364], [127.10212, 37.49358], [127.10222, 37.49353], [127.10365, 37.49273], [127.10437, 37.4923], [127.1048, 37.49204], [127.10568, 37.49141], [127.10814, 37.48931]]]]}}, {"type": "Feature", "properties": {"name": "세곡동", "sgg": "강남구"}, "geometry": {"type": "MultiPolygon", "coordinates": [[[[127.11104, 37.48294], [127.11109, 37.48289], [127.1117, 37.48244], [127.11459, 37.47852], [127.1188, 37.4728], [127.11961, 37.47168], [127.12054, 37.47038], [127.12151, 37.46882], [127.12218, 37.46752], [127.1223, 37.46676], [127.12242, 37.46586], [127.1224, 37.4656], [127.12236, 37.46545], [127.12229, 37.46521], [127.12185, 37.46503], [127.11746, 37.46217], [127.11718, 37.46182], [127.11708, 37.46154], [127.11699, 37.46126], [127.11695, 37.46101], [127.11693, 37.46079], [127.1169, 37.4605], [127.11678, 37.45914], [127.11675, 37.45859], [127.1156, 37.4586], [127.11364, 37.45974], [127.11325, 37.46004], [127.11288, 37.46048], [127.11301, 37.46058], [127.11322, 37.46072], [127.1133, 37.46078], [127.11337, 37.46083], [127.1134, 37.46107], [127.11202, 37.46156], [127.11128, 37.46171], [127.10826, 37.46217], [127.10664, 37.46248], [127.10631, 37.46254], [127.10473, 37.46215], [127.10448, 37.46102], [127.10396, 37.46011], [127.1035, 37.45963], [127.10056, 37.45905], [127.09821, 37.45879], [127.09685, 37.45961], [127.09632, 37.46143], [127.09626, 37.46164], [127.09609, 37.46223], [127.096, 37.4625], [127.09502, 37.46366], [127.09404, 37.46399], [127.09336, 37.4644], [127.08876, 37.46807], [127.08621, 37.47036], [127.0852, 37.47156], [127.0849, 37.47211], [127.08449, 37.47287], [127.08507, 37.47494], [127.08516, 37.47527], [127.08556, 37.47555], [127.08669, 37.47603], [127.09194, 37.47737], [127.09299, 37.47726], [127.09576, 37.4776], [127.09734, 37.47808], [127.09748, 37.47917], [127.09743, 37.47993], [127.09729, 37.48037], [127.09736, 37.48083], [127.09769, 37.48181], [127.09798, 37.4822], [127.09857, 37.48262], [127.09886, 37.4828], [127.09949, 37.48318], [127.10223, 37.48477], [127.10262, 37.48494], [127.10399, 37.48478], [127.10495, 37.48343], [127.1056, 37.48274], [127.10656, 37.48279], [127.10674, 37.4828], [127.10694, 37.48281], [127.10745, 37.48291], [127.10828, 37.48309], [127.11003, 37.48319], [127.11051, 37.48307], [127.11104, 37.48294]]]]}}, {"type": "Feature", "properties": {"name": "압구정동", "sgg": "강남구"}, "geometry": {"type": "MultiPolygon", "coordinates": [[[[127.04596, 37.5325], [127.044, 37.52757], [127.04379, 37.52705], [127.04182, 37.52752], [127.0412, 37.52768], [127.0408, 37.52779], [127.04018, 37.52642], [127.03954, 37.52464], [127.03933, 37.52404], [127.03912, 37.52347], [127.03913, 37.52319], [127.03913, 37.52308], [127.03913, 37.52304], [127.03918, 37.52291], [127.03906, 37.52293], [127.03884, 37.52298], [127.03826, 37.5228], [127.03741, 37.52254], [127.03387, 37.52142], [127.03279, 37.52108], [127.03052, 37.52036], [127.02808, 37.51958], [127.02816, 37.52113], [127.02817, 37.52134], [127.02825, 37.52257], [127.02837, 37.52458], [127.02856, 37.52555], [127.02859, 37.52594], [127.02862, 37.52661], [127.02856, 37.52731], [127.02834, 37.52721], [127.02831, 37.52729], [127.028, 37.52777], [127.02741, 37.5283], [127.02687, 37.52874], [127.02659, 37.52897], [127.02618, 37.52932], [127.0257, 37.52979], [127.02524, 37.53024], [127.02442, 37.5314], [127.02436, 37.5315], [127.02424, 37.53166], [127.02156, 37.53553], [127.0257, 37.53786], [127.02828, 37.53853], [127.02833, 37.53854], [127.02986, 37.53886], [127.03486, 37.53692], [127.03782, 37.53578], [127.03801, 37.5357], [127.03919, 37.53523], [127.04596, 37.5325]]]]}}, {"type": "Feature", "properties": {"name": "청담동", "sgg": "강남구"}, "geometry": {"type": "MultiPolygon", "coordinates": [[[[127.05657, 37.5291], [127.06025, 37.52752], [127.06526, 37.5256], [127.06194, 37.52214], [127.06155, 37.52173], [127.06062, 37.52127], [127.06056, 37.52124], [127.06032, 37.52115], [127.05883, 37.52063], [127.0584, 37.52048], [127.05831, 37.52045], [127.05808, 37.52037], [127.05777, 37.52026], [127.05731, 37.52011], [127.057, 37.52004], [127.05622, 37.51989], [127.05113, 37.519], [127.05027, 37.51885], [127.04124, 37.5173], [127.03918, 37.52291], [127.03913, 37.52304], [127.03913, 37.52308], [127.03913, 37.52319], [127.03912, 37.52347], [127.03933, 37.52404], [127.03954, 37.52464], [127.04018, 37.52642], [127.0408, 37.52779], [127.0412, 37.52768], [127.04182, 37.52752], [127.04379, 37.52705], [127.044, 37.52757], [127.04596, 37.5325], [127.04906, 37.53255], [127.05657, 37.5291]]]]}}, {"type": "Feature", "properties": {"name": "대치2동", "sgg": "강남구"}, "geometry": {"type": "MultiPolygon", "coordinates": [[[[127.0688, 37.51], [127.06943, 37.50645], [127.06971, 37.50539], [127.06981, 37.50504], [127.06999, 37.50481], [127.07002, 37.50478], [127.07121, 37.50352], [127.07249, 37.50262], [127.07266, 37.5025], [127.07291, 37.50232], [127.07318, 37.50213], [127.07549, 37.5012], [127.07465, 37.5003], [127.07407, 37.49886], [127.07418, 37.49853], [127.07418, 37.49848], [127.07427, 37.49782], [127.07428, 37.49775], [127.0743, 37.49747], [127.07424, 37.49667], [127.07412, 37.49618], [127.07385, 37.4951], [127.07382, 37.49505], [127.07379, 37.495], [127.07367, 37.49481], [127.07358, 37.49466], [127.07343, 37.49452], [127.07245, 37.49357], [127.07184, 37.49303], [127.06853, 37.49101], [127.068, 37.49075], [127.06781, 37.49066], [127.06721, 37.49045], [127.06716, 37.49044], [127.06643, 37.49025], [127.06635, 37.49023], [127.06553, 37.49007], [127.0622, 37.49646], [127.06086, 37.49887], [127.05669, 37.50686], [127.0605, 37.50802], [127.06655, 37.50994], [127.06737, 37.51009], [127.06846, 37.51028], [127.0688, 37.51]]]]}}, {"type": "Feature", "properties": {"name": "개포2동", "sgg": "강남구"}, "geometry": {"type": "MultiPolygon", "coordinates": [[[[127.07745, 37.48712], [127.07641, 37.4837], [127.07559, 37.48609], [127.07553, 37.4862], [127.0742, 37.48522], [127.07247, 37.48395], [127.07048, 37.48249], [127.0704, 37.48245], [127.06757, 37.48073], [127.06481, 37.47907], [127.06474, 37.47919], [127.058, 37.48482], [127.05765, 37.48531], [127.05745, 37.4856], [127.05687, 37.48649], [127.05682, 37.48655], [127.05652, 37.48766], [127.05656, 37.48768], [127.0579, 37.48838], [127.0588, 37.48875], [127.05921, 37.48885], [127.05927, 37.48887], [127.05939, 37.4889], [127.05999, 37.48904], [127.06202, 37.48942], [127.06553, 37.49007], [127.06635, 37.49023], [127.06643, 37.49025], [127.06716, 37.49044], [127.06721, 37.49045], [127.06781, 37.49066], [127.068, 37.49075], [127.06853, 37.49101], [127.07184, 37.49303], [127.0724, 37.49135], [127.07278, 37.49131], [127.075, 37.49206], [127.07494, 37.49217], [127.07544, 37.49234], [127.07621, 37.49259], [127.0765, 37.492], [127.07721, 37.49059], [127.07804, 37.48787], [127.07745, 37.48712]]]]}}]}